{
  "last_updated": "2025-12-31T06:00:02.444413",
  "satellites": {
    "98592": {
      "name": "DUTHSat-2",
      "norad_id": "98592",
      "tle": "1 64530U 25135C   25364.85044666  .00016793  00000-0  73637-3 0  9998\n2 64530  97.4488 116.6037 0006052  63.2033 296.9821 15.22036136 29281",
      "epoch": "2025-12-30T20:24:38.591424",
      "fetched_at": "2025-12-31T06:00:02.537750",
      "source": "satnogs"
    },
    "98530": {
      "name": "LAMARR",
      "norad_id": "98530",
      "tle": "1 66683U 25276T   25364.88239498  .00014479  00000-0  73247-3 0  9993\n2 66683  97.4448  76.3236 0005268 208.2782 151.8167 15.17122635  4875",
      "epoch": "2025-12-30T21:10:38.926272",
      "fetched_at": "2025-12-31T06:00:02.581969",
      "source": "satnogs"
    },
    "98529": {
      "name": "DIRAC",
      "norad_id": "98529",
      "tle": "1 66681U 25276R   25364.87648096  .00030599  00000-0  15115-2 0  9998\n2 66681  97.4336  76.2850 0004985 242.3179 117.7549 15.17796308  4873",
      "epoch": "2025-12-30T21:02:07.954944",
      "fetched_at": "2025-12-31T06:00:02.621412",
      "source": "satnogs"
    },
    "98518": {
      "name": "MICE-1",
      "norad_id": "98518",
      "tle": "1 66684U 25276U   25364.87738286  .00008333  00000-0  41857-3 0  9996\n2 66684  97.4473  76.3396 0004932 207.1504 152.9473 15.17518450  4874",
      "epoch": "2025-12-30T21:03:25.879104",
      "fetched_at": "2025-12-31T06:00:02.663016",
      "source": "satnogs"
    }
  },
  "fetch_log": [
    {
      "norad_id": "98592",
      "name": "DUTHSat-2",
      "status": "success",
      "source": "satnogs",
      "timestamp": "2025-12-31T06:00:02.537753"
    },
    {
      "norad_id": "98530",
      "name": "LAMARR",
      "status": "success",
      "source": "satnogs",
      "timestamp": "2025-12-31T06:00:02.581978"
    },
    {
      "norad_id": "98529",
      "name": "DIRAC",
      "status": "success",
      "source": "satnogs",
      "timestamp": "2025-12-31T06:00:02.621416"
    },
    {
      "norad_id": "98518",
      "name": "MICE-1",
      "status": "success",
      "source": "satnogs",
      "timestamp": "2025-12-31T06:00:02.663019"
    }
  ]
}